{"type": "FeatureCollection", "features": [ {"type": "Feature", "properties": {"norad_id": 66867, "name": "STARLINK-36101", "group": "last-30-days", "lat": 5.415430216973675, "lon": 88.45624613590067, "alt_km": 343.53907837349834, "timestamp": "2025-12-19T04:59:47.031951+00:00", "meta": {"OBJECT_NAME": "STARLINK-36101", "OBJECT_ID": "2025-281V", "EPOCH": "2025-12-18T22:00:00.999936", "MEAN_MOTION": 15.75062456, "ECCENTRICITY": 0.00015323, "INCLINATION": 43.0012, "RA_OF_ASC_NODE": 84.3864, "ARG_OF_PERICENTER": 276.8374, "MEAN_ANOMALY": 236.2774, "EPHEMERIS_TYPE": 0, "CLASSIFICATION_TYPE": "U", "NORAD_CAT_ID": 66867, "ELEMENT_SET_NO": 999, "REV_AT_EPOCH": 222, "BSTAR": -0.00024861965, "MEAN_MOTION_DOT": -0.00038532, "MEAN_MOTION_DDOT": 0}, "tle": {"line1": "1 66867U 25281V   25352.91667824 -.00038532  00000+0 -24862-3 0  9998", "line2": "2 66867  43.0012  84.3864 0001532 276.8374 236.2774 15.75062456  2224"}}, "geometry": {"type": "Point", "coordinates": [88.45624613590067, 5.415430216973675]}}, {"type": "Feature", "properties": {"norad_id": 66868, "name": "STARLINK-36108", "group": "last-30-days", "lat": 6.717838655438837, "lon": 89.87408367521225, "alt_km": 343.5400550557006, "timestamp": "2025-12-19T04:59:47.031961+00:00", "meta": {"OBJECT_NAME": "STARLINK-36108", "OBJECT_ID": "2025-281W", "EPOCH": "2025-12-18T22:00:00.999936", "MEAN_MOTION": 15.75079499, "ECCENTRICITY": 0.00017303, "INCLINATION": 43.0009, "RA_OF_ASC_NODE": 84.3814, "ARG_OF_PERICENTER": 268.9094, "MEAN_ANOMALY": 246.1142, "EPHEMERIS_TYPE": 0, "CLASSIFICATION_TYPE": "U", "NORAD_CAT_ID": 66868, "ELEMENT_SET_NO": 999, "REV_AT_EPOCH": 222, "BSTAR": -0.00038563265, "MEAN_MOTION_DOT": -0.00059405, "MEAN_MOTION_DDOT": 0}, "tle": {"line1": "1 66868U 25281W   25352.91667824 -.00059405  00000+0 -38563-3 0  9994", "line2": "2 66868  43.0009  84.3814 0001730 268.9094 246.1142 15.75079499  2221"}}, "geometry": {"type": "Point", "coordinates": [89.87408367521225, 6.717838655438837]}}, {"type": "Feature", "properties": {"norad_id": 66869, "name": "STARLINK-36092", "group": "last-30-days", "lat": 8.012321816433953, "lon": 91.29489759451754, "alt_km": 343.37766976898274, "timestamp": "2025-12-19T04:59:47.031973+00:00", "meta": {"OBJECT_NAME": "STARLINK-36092", "OBJECT_ID": "2025-281X", "EPOCH": "2025-12-18T22:00:00.999936", "MEAN_MOTION": 15.75051438, "ECCENTRICITY": 0.00015955, "INCLINATION": 43.0015, "RA_OF_ASC_NODE": 84.3761, "ARG_OF_PERICENTER": 269.5905, "MEAN_ANOMALY": 247.3693, "EPHEMERIS_TYPE": 0, "CLASSIFICATION_TYPE": "U", "NORAD_CAT_ID": 66869, "ELEMENT_SET_NO": 999, "REV_AT_EPOCH": 242, "BSTAR": -0.00013988732, "MEAN_MOTION_DOT": -0.00021921, "MEAN_MOTION_DDOT": 0}, "tle": {"line1": "1 66869U 25281X   25352.91667824 -.00021921  00000+0 -13989-3 0  9992", "line2": "2 66869  43.0015  84.3761 0001595 269.5905 247.3693 15.75051438  2426"}}, "geometry": {"type": "Point", "coordinates": [91.29489759451754, 8.012321816433953]}}, {"type": "Feature", "properties": {"norad_id": 66870, "name": "STARLINK-36114", "group": "last-30-days", "lat": 9.300990515052408, "lon": 92.72482073924822, "alt_km": 343.19867832891305, "timestamp": "2025-12-19T04:59:47.031985+00:00", "meta": {"OBJECT_NAME": "STARLINK-36114", "OBJECT_ID": "2025-281Y", "EPOCH": "2025-12-18T22:00:00.999936", "MEAN_MOTION": 15.75083652, "ECCENTRICITY": 0.00017067, "INCLINATION": 43.0007, "RA_OF_ASC_NODE": 84.3715, "ARG_OF_PERICENTER": 272.1239, "MEAN_ANOMALY": 246.7338, "EPHEMERIS_TYPE": 0, "CLASSIFICATION_TYPE": "U", "NORAD_CAT_ID": 66870, "ELEMENT_SET_NO": 999, "REV_AT_EPOCH": 229, "BSTAR": -0.0005205184, "MEAN_MOTION_DOT": -0.00079838, "MEAN_MOTION_DDOT": 0}, "tle": {"line1": "1 66870U 25281Y   25352.91667824 -.00079838  00000+0 -52052-3 0  9998", "line2": "2 66870  43.0007  84.3715 0001706 272.1239 246.7338 15.75083652  2299"}}, "geometry": {"type": "Point", "coordinates": [92.72482073924822, 9.300990515052408]}}, {"type": "Feature", "properties": {"norad_id": 66871, "name": "STARLINK-36095", "group": "last-30-days", "lat": 10.5829592289235, "lon": 94.16291101025176, "alt_km": 343.0464034312481, "timestamp": "2025-12-19T04:59:47.031997+00:00", "meta": {"OBJECT_NAME": "STARLINK-36095", "OBJECT_ID": "2025-281Z", "EPOCH": "2025-12-18T22:00:00.999936", "MEAN_MOTION": 15.75036565, "ECCENTRICITY": 0.00015267, "INCLINATION": 43.0016, "RA_OF_ASC_NODE": 84.366, "ARG_OF_PERICENTER": 270.9883, "MEAN_ANOMALY": 249.8116, "EPHEMERIS_TYPE": 0, "CLASSIFICATION_TYPE": "U", "NORAD_CAT_ID": 66871, "ELEMENT_SET_NO": 999, "REV_AT_EPOCH": 242, "BSTAR": -2.4870216e-05, "MEAN_MOTION_DOT": -4.295e-05, "MEAN_MOTION_DDOT": 0}, "tle": {"line1": "1 66871U 25281Z   25352.91667824 -.00004295  00000+0 -24870-4 0  9992", "line2": "2 66871  43.0016  84.3660 0001526 270.9883 249.8116 15.75036565  2424"}}, "geometry": {"type": "Point", "coordinates": [94.16291101025176, 10.5829592289235]}}, {"type": "Feature", "properties": {"norad_id": 66872, "name": "STARLINK-36082", "group": "last-30-days", "lat": 11.858965040455649, "lon": 95.61524854525567, "alt_km": 343.08157690652115, "timestamp": "2025-12-19T04:59:47.032007+00:00", "meta": {"OBJECT_NAME": "STARLINK-36082", "OBJECT_ID": "2025-281AA", "EPOCH": "2025-12-18T22:00:00.999936", "MEAN_MOTION": 15.75078387, "ECCENTRICITY": 0.00017535, "INCLINATION": 43.0009, "RA_OF_ASC_NODE": 84.3614, "ARG_OF_PERICENTER": 265.2269, "MEAN_ANOMALY": 257.4702, "EPHEMERIS_TYPE": 0, "CLASSIFICATION_TYPE": "U", "NORAD_CAT_ID": 66872, "ELEMENT_SET_NO": 999, "REV_AT_EPOCH": 229, "BSTAR": -0.00062917364, "MEAN_MOTION_DOT": -0.00096198, "MEAN_MOTION_DDOT": 0}, "tle": {"line1": "1 66872U 25281AA  25352.91667824 -.00096198  00000+0 -62917-3 0  9999", "line2": "2 66872  43.0009  84.3614 0001753 265.2269 257.4702 15.75078387  2292"}}, "geometry": {"type": "Point", "coordinates": [95.61524854525567, 11.858965040455649]}}, {"type": "Feature", "properties": {"norad_id": 66873, "name": "STARLINK-36128", "group": "last-30-days", "lat": 15.649526929732186, "lon": 100.07237540337272, "alt_km": 342.71041922173936, "timestamp": "2025-12-19T04:59:47.032017+00:00", "meta": {"OBJECT_NAME": "STARLINK-36128", "OBJECT_ID": "2025-281AB", "EPOCH": "2025-12-18T22:00:00.999936", "MEAN_MOTION": 15.75070433, "ECCENTRICITY": 0.00018455, "INCLINATION": 43.0009, "RA_OF_ASC_NODE": 84.3465, "ARG_OF_PERICENTER": 257.3779, "MEAN_ANOMALY": 271.0726, "EPHEMERIS_TYPE": 0, "CLASSIFICATION_TYPE": "U", "NORAD_CAT_ID": 66873, "ELEMENT_SET_NO": 999, "REV_AT_EPOCH": 242, "BSTAR": -0.00026193771, "MEAN_MOTION_DOT": -0.00040577, "MEAN_MOTION_DDOT": 0}, "tle": {"line1": "1 66873U 25281AB  25352.91667824 -.00040577  00000+0 -26194-3 0  9997", "line2": "2 66873  43.0009  84.3465 0001845 257.3779 271.0726 15.75070433  2424"}}, "geometry": {"type": "Point", "coordinates": [100.07237540337272, 15.649526929732186]}}, {"type": "Feature", "properties": {"norad_id": 66874, "name": "STARLINK-36129", "group": "last-30-days", "lat": 13.130146664222453, "lon": 97.08385214506899, "alt_km": 342.97899536684326, "timestamp": "2025-12-19T04:59:47.032027+00:00", "meta": {"OBJECT_NAME": "STARLINK-36129", "OBJECT_ID": "2025-281AC", "EPOCH": "2025-12-18T22:00:00.999936", "MEAN_MOTION": 15.75063933, "ECCENTRICITY": 0.00018071, "INCLINATION": 43.0011, "RA_OF_ASC_NODE": 84.3566, "ARG_OF_PERICENTER": 260.3105, "MEAN_ANOMALY": 264.3038, "EPHEMERIS_TYPE": 0, "CLASSIFICATION_TYPE": "U", "NORAD_CAT_ID": 66874, "ELEMENT_SET_NO": 999, "REV_AT_EPOCH": 242, "BSTAR": -0.00026468349, "MEAN_MOTION_DOT": -0.00040984, "MEAN_MOTION_DDOT": 0}, "tle": {"line1": "1 66874U 25281AC  25352.91667824 -.00040984  00000+0 -26468-3 0  9994", "line2": "2 66874  43.0011  84.3566 0001807 260.3105 264.3038 15.75063933  2423"}}, "geometry": {"type": "Point", "coordinates": [97.08385214506899, 13.130146664222453]}}, {"type": "Feature", "properties": {"norad_id": 66875, "name": "STARLINK-36053", "group": "last-30-days", "lat": 16.87044218972221, "lon": 101.56384140311187, "alt_km": 342.54518027153335, "timestamp": "2025-12-19T04:59:47.032037+00:00", "meta": {"OBJECT_NAME": "STARLINK-36053", "OBJECT_ID": "2025-281AD", "EPOCH": "2025-12-18T22:00:00.999936", "MEAN_MOTION": 15.75054307, "ECCENTRICITY": 0.00016311, "INCLINATION": 43.0011, "RA_OF_ASC_NODE": 84.341, "ARG_OF_PERICENTER": 264.2714, "MEAN_ANOMALY": 266.1063, "EPHEMERIS_TYPE": 0, "CLASSIFICATION_TYPE": "U", "NORAD_CAT_ID": 66875, "ELEMENT_SET_NO": 999, "REV_AT_EPOCH": 242, "BSTAR": -0.00079326147, "MEAN_MOTION_DOT": -0.00120685, "MEAN_MOTION_DDOT": 0}, "tle": {"line1": "1 66875U 25281AD  25352.91667824 -.00120685  00000+0 -79326-3 0  9993", "line2": "2 66875  43.0011  84.3410 0001631 264.2714 266.1063 15.75054307  2429"}}, "geometry": {"type": "Point", "coordinates": [101.56384140311187, 16.87044218972221]}}, {"type": "Feature", "properties": {"norad_id": 66876, "name": "STARLINK-35702", "group": "last-30-days", "lat": 14.39630487807677, "lon": 98.571501677606, "alt_km": 342.2597038889962, "timestamp": "2025-12-19T04:59:47.032049+00:00", "meta": {"OBJECT_NAME": "STARLINK-35702", "OBJECT_ID": "2025-281AE", "EPOCH": "2025-12-18T22:00:00.999936", "MEAN_MOTION": 15.75066568, "ECCENTRICITY": 0.00022978, "INCLINATION": 43.001, "RA_OF_ASC_NODE": 84.3513, "ARG_OF_PERICENTER": 290.0576, "MEAN_ANOMALY": 236.4802, "EPHEMERIS_TYPE": 0, "CLASSIFICATION_TYPE": "U", "NORAD_CAT_ID": 66876, "ELEMENT_SET_NO": 999, "REV_AT_EPOCH": 242, "BSTAR": -0.00048674585, "MEAN_MOTION_DOT": -0.00074687, "MEAN_MOTION_DDOT": 0}, "tle": {"line1": "1 66876U 25281AE  25352.91667824 -.00074687  00000+0 -48675-3 0  9997", "line2": "2 66876  43.0010  84.3513 0002297 290.0576 236.4802 15.75066568  2428"}}, "geometry": {"type": "Point", "coordinates": [98.571501677606, 14.39630487807677]}}]}